CCSDS_OMM_VERS = 2.0
CREATION_DATE  = 
ORIGINATOR     = 

OBJECT_NAME    = ATLAS CENTAUR 2
OBJECT_ID      = 1963-047A
CENTER_NAME    = EARTH
REF_FRAME      = TEME
TIME_SYSTEM    = UTC
MEAN_ELEMENT_THEORY = SGP/SGP4

EPOCH          = 2026-03-03T19:41:29.300928
MEAN_MOTION    = 14.12046989
ECCENTRICITY   = .054781
INCLINATION    = 30.3522
RA_OF_ASC_NODE = 228.4444
ARG_OF_PERICENTER = 28.5612
MEAN_ANOMALY   = 334.3898

EPHEMERIS_TYPE = 0
CLASSIFICATION_TYPE = U
NORAD_CAT_ID   = 694
ELEMENT_SET_NO = 999
REV_AT_EPOCH   = 13079
BSTAR          = .20895E-3
MEAN_MOTION_DOT = .1791E-4
MEAN_MOTION_DDOT = 0

CCSDS_OMM_VERS = 2.0
CREATION_DATE  = 
ORIGINATOR     = 

OBJECT_NAME    = THOR AGENA D R/B
OBJECT_ID      = 1964-002A
CENTER_NAME    = EARTH
REF_FRAME      = TEME
TIME_SYSTEM    = UTC
MEAN_ELEMENT_THEORY = SGP/SGP4

EPOCH          = 2026-03-03T15:52:06.682944
MEAN_MOTION    = 14.34015993
ECCENTRICITY   = .0031917
INCLINATION    = 99.1227
RA_OF_ASC_NODE = 75.6701
ARG_OF_PERICENTER = 276.1434
MEAN_ANOMALY   = 83.6113

EPHEMERIS_TYPE = 0
CLASSIFICATION_TYPE = U
NORAD_CAT_ID   = 733
ELEMENT_SET_NO = 999
REV_AT_EPOCH   = 23743
BSTAR          = .1244E-3
MEAN_MOTION_DOT = .3E-5
MEAN_MOTION_DDOT = 0

CCSDS_OMM_VERS = 2.0
CREATION_DATE  = 
ORIGINATOR     = 

OBJECT_NAME    = SL-3 R/B
OBJECT_ID      = 1964-053B
CENTER_NAME    = EARTH
REF_FRAME      = TEME
TIME_SYSTEM    = UTC
MEAN_ELEMENT_THEORY = SGP/SGP4

EPOCH          = 2026-03-03T04:34:31.882656
MEAN_MOTION    = 14.61361057
ECCENTRICITY   = .00794699
INCLINATION    = 65.0788
RA_OF_ASC_NODE = 350.2898
ARG_OF_PERICENTER = 294.2851
MEAN_ANOMALY   = 64.9963

EPHEMERIS_TYPE = 0
CLASSIFICATION_TYPE = U
NORAD_CAT_ID   = 877
ELEMENT_SET_NO = 999
REV_AT_EPOCH   = 26584
BSTAR          = .11619696E-3
MEAN_MOTION_DOT = .476E-5
MEAN_MOTION_DDOT = 0

CCSDS_OMM_VERS = 2.0
CREATION_DATE  = 
ORIGINATOR     = 

OBJECT_NAME    = SL-8 R/B
OBJECT_ID      = 1967-045B
CENTER_NAME    = EARTH
REF_FRAME      = TEME
TIME_SYSTEM    = UTC
MEAN_ELEMENT_THEORY = SGP/SGP4

EPOCH          = 2026-03-03T19:56:59.828064
MEAN_MOTION    = 14.45615996
ECCENTRICITY   = .0063948
INCLINATION    = 74.0136
RA_OF_ASC_NODE = 359.0287
ARG_OF_PERICENTER = 6.6887
MEAN_ANOMALY   = 353.5109

EPHEMERIS_TYPE = 0
CLASSIFICATION_TYPE = U
NORAD_CAT_ID   = 2802
ELEMENT_SET_NO = 999
REV_AT_EPOCH   = 8817
BSTAR          = .17182E-3
MEAN_MOTION_DOT = .594E-5
MEAN_MOTION_DDOT = 0

CCSDS_OMM_VERS = 2.0
CREATION_DATE  = 
ORIGINATOR     = 

OBJECT_NAME    = SL-8 R/B
OBJECT_ID      = 1968-040B
CENTER_NAME    = EARTH
REF_FRAME      = TEME
TIME_SYSTEM    = UTC
MEAN_ELEMENT_THEORY = SGP/SGP4

EPOCH          = 2026-03-03T18:52:39.883872
MEAN_MOTION    = 15.03207553
ECCENTRICITY   = .002417
INCLINATION    = 74.0330
RA_OF_ASC_NODE = 325.7556
ARG_OF_PERICENTER = 151.5126
MEAN_ANOMALY   = 208.7390

EPHEMERIS_TYPE = 0
CLASSIFICATION_TYPE = U
NORAD_CAT_ID   = 3230
ELEMENT_SET_NO = 999
REV_AT_EPOCH   = 8912
BSTAR          = .31999E-3
MEAN_MOTION_DOT = .4317E-4
MEAN_MOTION_DDOT = 0

CCSDS_OMM_VERS = 2.0
CREATION_DATE  = 
ORIGINATOR     = 

OBJECT_NAME    = OAO 2
OBJECT_ID      = 1968-110A
CENTER_NAME    = EARTH
REF_FRAME      = TEME
TIME_SYSTEM    = UTC
MEAN_ELEMENT_THEORY = SGP/SGP4

EPOCH          = 2026-03-03T17:05:31.626240
MEAN_MOTION    = 14.47303708
ECCENTRICITY   = .0005236
INCLINATION    = 34.9935
RA_OF_ASC_NODE = 298.5981
ARG_OF_PERICENTER = 157.2039
MEAN_ANOMALY   = 202.8884

EPHEMERIS_TYPE = 0
CLASSIFICATION_TYPE = U
NORAD_CAT_ID   = 3597
ELEMENT_SET_NO = 999
REV_AT_EPOCH   = 1823
BSTAR          = .10554E-3
MEAN_MOTION_DOT = .373E-5
MEAN_MOTION_DDOT = 0

CCSDS_OMM_VERS = 2.0
CREATION_DATE  = 
ORIGINATOR     = 

OBJECT_NAME    = ISIS 1
OBJECT_ID      = 1969-009A
CENTER_NAME    = EARTH
REF_FRAME      = TEME
TIME_SYSTEM    = UTC
MEAN_ELEMENT_THEORY = SGP/SGP4

EPOCH          = 2026-03-03T16:50:05.990208
MEAN_MOTION    = 11.30412028
ECCENTRICITY   = .170783
INCLINATION    = 88.4548
RA_OF_ASC_NODE = 155.9614
ARG_OF_PERICENTER = 101.2422
MEAN_ANOMALY   = 278.4583

EPHEMERIS_TYPE = 0
CLASSIFICATION_TYPE = U
NORAD_CAT_ID   = 3669
ELEMENT_SET_NO = 999
REV_AT_EPOCH   = 34785
BSTAR          = .13886E-3
MEAN_MOTION_DOT = .218E-5
MEAN_MOTION_DDOT = 0

CCSDS_OMM_VERS = 2.0
CREATION_DATE  = 
ORIGINATOR     = 

OBJECT_NAME    = SERT 2
OBJECT_ID      = 1970-009A
CENTER_NAME    = EARTH
REF_FRAME      = TEME
TIME_SYSTEM    = UTC
MEAN_ELEMENT_THEORY = SGP/SGP4

EPOCH          = 2026-03-03T17:36:47.314944
MEAN_MOTION    = 13.58729238
ECCENTRICITY   = .0004815
INCLINATION    = 99.2752
RA_OF_ASC_NODE = 6.1536
ARG_OF_PERICENTER = 170.2714
MEAN_ANOMALY   = 250.5341

EPHEMERIS_TYPE = 0
CLASSIFICATION_TYPE = U
NORAD_CAT_ID   = 4327
ELEMENT_SET_NO = 999
REV_AT_EPOCH   = 77908
BSTAR          = .65814E-4
MEAN_MOTION_DOT = .7E-7
MEAN_MOTION_DDOT = 0

CCSDS_OMM_VERS = 2.0
CREATION_DATE  = 
ORIGINATOR     = 

OBJECT_NAME    = SL-3 R/B
OBJECT_ID      = 1971-028B
CENTER_NAME    = EARTH
REF_FRAME      = TEME
TIME_SYSTEM    = UTC
MEAN_ELEMENT_THEORY = SGP/SGP4

EPOCH          = 2026-03-03T18:11:52.136448
MEAN_MOTION    = 15.60539303
ECCENTRICITY   = .001411
INCLINATION    = 81.2334
RA_OF_ASC_NODE = 59.3522
ARG_OF_PERICENTER = 311.1360
MEAN_ANOMALY   = 48.8674

EPHEMERIS_TYPE = 0
CLASSIFICATION_TYPE = U
NORAD_CAT_ID   = 5118
ELEMENT_SET_NO = 999
REV_AT_EPOCH   = 98774
BSTAR          = .60673E-3
MEAN_MOTION_DOT = .50504E-3
MEAN_MOTION_DDOT = 0

CCSDS_OMM_VERS = 2.0
CREATION_DATE  = 
ORIGINATOR     = 

OBJECT_NAME    = ASTEX 1
OBJECT_ID      = 1971-089A
CENTER_NAME    = EARTH
REF_FRAME      = TEME
TIME_SYSTEM    = UTC
MEAN_ELEMENT_THEORY = SGP/SGP4

EPOCH          = 2026-03-03T18:03:44.990784
MEAN_MOTION    = 14.50762362
ECCENTRICITY   = .0017842
INCLINATION    = 92.7130
RA_OF_ASC_NODE = 149.8399
ARG_OF_PERICENTER = 103.3753
MEAN_ANOMALY   = 256.9444

EPHEMERIS_TYPE = 0
CLASSIFICATION_TYPE = U
NORAD_CAT_ID   = 5560
ELEMENT_SET_NO = 999
REV_AT_EPOCH   = 86144
BSTAR          = .16579E-3
MEAN_MOTION_DOT = .652E-5
MEAN_MOTION_DDOT = 0

CCSDS_OMM_VERS = 2.0
CREATION_DATE  = 
ORIGINATOR     = 

OBJECT_NAME    = SL-8 R/B
OBJECT_ID      = 1971-119B
CENTER_NAME    = EARTH
REF_FRAME      = TEME
TIME_SYSTEM    = UTC
MEAN_ELEMENT_THEORY = SGP/SGP4

EPOCH          = 2026-03-03T17:49:46.701696
MEAN_MOTION    = 14.37668587
ECCENTRICITY   = .0549919
INCLINATION    = 73.8880
RA_OF_ASC_NODE = 186.8316
ARG_OF_PERICENTER = 154.7054
MEAN_ANOMALY   = 208.2157

EPHEMERIS_TYPE = 0
CLASSIFICATION_TYPE = U
NORAD_CAT_ID   = 5730
ELEMENT_SET_NO = 999
REV_AT_EPOCH   = 65463
BSTAR          = .84216E-3
MEAN_MOTION_DOT = .16218E-3
MEAN_MOTION_DDOT = 0

CCSDS_OMM_VERS = 2.0
CREATION_DATE  = 
ORIGINATOR     = 

OBJECT_NAME    = OAO 3 (COPERNICUS)
OBJECT_ID      = 1972-065A
CENTER_NAME    = EARTH
REF_FRAME      = TEME
TIME_SYSTEM    = UTC
MEAN_ELEMENT_THEORY = SGP/SGP4

EPOCH          = 2026-03-03T18:45:53.465184
MEAN_MOTION    = 14.59992338
ECCENTRICITY   = .0005981
INCLINATION    = 35.0067
RA_OF_ASC_NODE = 330.9748
ARG_OF_PERICENTER = 115.7053
MEAN_ANOMALY   = 281.6074

EPHEMERIS_TYPE = 0
CLASSIFICATION_TYPE = U
NORAD_CAT_ID   = 6153
ELEMENT_SET_NO = 999
REV_AT_EPOCH   = 84533
BSTAR          = .11312E-3
MEAN_MOTION_DOT = .53E-5
MEAN_MOTION_DDOT = 0

